CUTE-1 (CO-55)          
1 27844U 03031E   26136.98733409  .00000179  00000+0  96322-4 0  9995
2 27844  98.6746 145.9384 0008291 277.1564  82.8672 14.24315051187233
CUBESAT XI-IV (CO-57)   
1 27848U 03031J   26136.96017615  .00000150  00000+0  85081-4 0  9990
2 27848  98.6778 145.6494 0008322 298.5397  61.4943 14.23602877186931
CUBESAT XI-V            
1 28895U 05043F   26136.87452283  .00000766  00000+0  12875-3 0  9995
2 28895  98.2950 291.8469 0012953 307.9672  52.0364 14.72541900 97144
CUTE-1.7+APD II (CO-65) 
1 32785U 08021C   26136.88985129  .00004121  00000+0  26370-3 0  9992
2 32785  97.8264 117.6689 0010276 128.7006 231.5143 15.09131603980477
CANX-2                  
1 32790U 08021H   26136.78384353  .00001848  00000+0  13337-3 0  9991
2 32790  97.8622 115.9617 0011469 142.2581 217.9451 15.05373133980086
SEEDS II (CO-66)        
1 32791U 08021J   26136.91790273  .00014819  00000+0  48763-3 0  9992
2 32791  97.7519 133.3524 0004883  76.8002 283.3783 15.31610553982507
SWISSCUBE               
1 35932U 09051B   26136.96962530  .00000618  00000+0  13190-3 0  9996
2 35932  98.4056  44.3127 0005919 320.4195  39.6573 14.62415868884597
BEESAT-1                
1 35933U 09051C   26136.82601627  .00000518  00000+0  11403-3 0  9993
2 35933  98.3985  43.8674 0004762 339.9476  20.1537 14.61664677884601
ITUPSAT1                
1 35935U 09051E   26136.99504801  .00000476  00000+0  10844-3 0  9990
2 35935  98.4070  43.2639 0007162 346.4070  13.6936 14.60389409884183
TISAT 1                 
1 36799U 10035E   26136.94238335  .00015910  00000+0  54275-3 0  9999
2 36799  98.0705  80.7555 0003180  45.7057 314.4443 15.30441051862929
AEROCUBE 4.5A           
1 38767U 12048K   26136.44189899  .00180276  00000+0  99371-3 0  9991
2 38767  64.6277 141.4098 0018618 216.5222 143.4664 15.78668078367624
STRAND-1                
1 39090U 13009E   26136.72600487  .00000171  00000+0  72075-4 0  9999
2 39090  98.3916 317.7362 0007971 332.7119  27.3648 14.37143382692540
BRITE-AUSTRIA           
1 39091U 13009F   26136.44675937  .00000105  00000+0  50264-4 0  9994
2 39091  98.3987 316.6696 0009720 341.7953  18.2885 14.36528593692493
NEE-01 PEGASO           
1 39151U 13018B   26136.84514408  .00001147  00000+0  11477-3 0  9999
2 39151  98.1182 279.9712 0011304 266.7567  93.2359 14.93493026706022
POPACS 2                
1 39269U 13055E   26136.83241990  .00011215  00000+0  19294-3 0  9994
2 39269  80.9919 180.0667 0418729 294.6614  61.1537 14.90483974658548
POPACS 3                
1 39270U 13055F   26136.63902312  .00013653  00000+0  32531-3 0  9993
2 39270  81.0017 263.3692 0554830 165.9259 195.8151 14.55329746633966
ZACUBE-1 (TSHEPISOSAT)  
1 39417U 13066B   26136.94346355  .00003147  00000+0  24755-3 0  9997
2 39417  97.8122  99.1110 0041355 358.0264   2.0789 15.00931000676040
WNISAT-1                
1 39423U 13066H   26136.84891794  .00000287  00000+0  61381-4 0  9994
2 39423  97.7163 288.2364 0162397 331.0620  28.1647 14.58020495662169
TRITON-1                
1 39427U 13066M   26136.95985396  .00001538  00000+0  18968-3 0  9994
2 39427  97.8273  47.4785 0089798 337.1876  22.5357 14.81559389669462
GOMX-1                  
1 39430U 13066Q   26136.86123348  .00001091  00000+0  17037-3 0  9999
2 39430  97.6508 339.3004 0128725 177.4487 182.7405 14.69325806665313
CUBEBUG-2 (LO-74)       
1 39440U 13066AA  26136.91169955  .00001710  00000+0  16269-3 0  9994
2 39440  97.8896  85.7687 0059082 130.0092 230.6334 14.93504690672321
NEE-02 KRYSAOR          
1 39441U 13066AB  26136.90941685  .00000950  00000+0  10967-3 0  9996
2 39441  97.8884  76.3535 0066393 170.9505 189.2925 14.86491135671552
FUNCUBE-1 (AO-73)       
1 39444U 13066AE  26136.89618545  .00005146  00000+0  32477-3 0  9995
2 39444  97.8262 107.7027 0034943 312.5804  47.2476 15.09058385674944
UWE-3                   
1 39446U 13066AG  26136.86460146  .00002724  00000+0  23763-3 0  9993
2 39446  97.8684  92.7394 0050507  64.7810 295.8635 14.96737192672896
BRITE-CA1 (TORONTO)     
1 40020U 14033L   26136.78298863  .00000410  00000+0  69346-4 0  9992
2 40020  97.9695 266.2986 0078998  18.4727 341.9320 14.72631022637592
DUCHIFAT-1              
1 40021U 14033M   26136.94089523  .00068762  00000+0  88656-3 0  9990
2 40021  98.0501 191.8677 0006074 176.5379 183.5918 15.58767609650871
NANOSATC-BR1            
1 40024U 14033Q   26136.89705577  .00014368  00000+0  49119-3 0  9995
2 40024  98.0741 166.5362 0001708 300.6204  59.4867 15.30399957649190
QB50P1                  
1 40025U 14033R   26136.97103143  .00006896  00000+0  34515-3 0  9997
2 40025  98.0972 145.9407 0007928 344.3743  15.7243 15.17741337648292
QB50P2                  
1 40032U 14033Y   26136.92417876  .00005334  00000+0  29174-3 0  9992
2 40032  98.0751 131.8705 0005706 285.5578  74.5022 15.14729103647936
PERSEUS-M2              
1 40037U 14033AD  26136.81603572  .00001541  00000+0  14481-3 0  9996
2 40037  97.9948  86.7236 0013271  48.9202 311.3162 14.95408068646090
